{
"type": "FeatureCollection",
"name": "12jicaro",
"crs": { "type": "name", "properties": { "name": "urn:ogc:def:crs:EPSG::5367" } },
"features": [
{ "type": "Feature", "properties": { "id": null }, "geometry": { "type": "MultiPolygon", "coordinates": [ [ [ [ 353314.086934232967906, 1163355.74577141739428 ], [ 352976.588672192301601, 1163420.891071634367108 ], [ 353175.948353820596822, 1163679.116363558685407 ], [ 353865.857522131991573, 1163460.919212934561074 ], [ 353639.811918185907416, 1163191.705625633709133 ], [ 353314.086934232967906, 1163355.74577141739428 ] ] ] ] } }
]
}
