{
"type": "FeatureCollection",
"name": "ud12jicaro",
"crs": { "type": "name", "properties": { "name": "urn:ogc:def:crs:EPSG::5367" } },
"features": [
{ "type": "Feature", "properties": { "id": null, "area": 50951 }, "geometry": { "type": "MultiPolygon", "coordinates": [ [ [ [ 353268.393981921486557, 1163366.01037663850002 ], [ 353319.394133399706334, 1163514.562662386102602 ], [ 353443.454084222263191, 1163589.562662383541465 ], [ 353591.732617032481357, 1163544.56266238540411 ], [ 353418.393981918576173, 1163305.631161162629724 ], [ 353268.393981921486557, 1163366.01037663850002 ] ] ] ] } },
{ "type": "Feature", "properties": { "id": null, "area": 33076 }, "geometry": { "type": "MultiPolygon", "coordinates": [ [ [ [ 353718.393981922767125, 1163285.079733313294128 ], [ 353594.821152637130581, 1163384.562662390060723 ], [ 353671.200945710181259, 1163519.562662385636941 ], [ 353848.831835992459673, 1163464.562662387266755 ], [ 353848.393981920322403, 1163442.212262227199972 ], [ 353718.393981922767125, 1163285.079733313294128 ] ] ] ] } },
{ "type": "Feature", "properties": { "id": null, "area": 20918 }, "geometry": { "type": "MultiPolygon", "coordinates": [ [ [ [ 353718.393981922767125, 1163285.079733312828466 ], [ 353642.801552989694756, 1163199.56266239634715 ], [ 353496.201321368804201, 1163269.562662394251674 ], [ 353594.821152637130581, 1163384.562662390060723 ], [ 353718.393981922767125, 1163285.079733312828466 ] ] ] ] } },
{ "type": "Feature", "properties": { "id": null, "area": 26219 }, "geometry": { "type": "MultiPolygon", "coordinates": [ [ [ [ 353496.201321368804201, 1163269.562662394251674 ], [ 353423.393981921486557, 1163307.893438508501276 ], [ 353591.732617032481357, 1163544.56266238540411 ], [ 353671.200945710181259, 1163519.562662384938449 ], [ 353594.821152637130581, 1163384.562662390060723 ], [ 353496.201321368804201, 1163269.562662394251674 ] ] ] ] } },
{ "type": "Feature", "properties": { "id": null, "area": 13700 }, "geometry": { "type": "MultiPolygon", "coordinates": [ [ [ [ 353443.454084222263191, 1163589.562662383308634 ], [ 353319.394133399706334, 1163514.562662385636941 ], [ 353265.827966623241082, 1163567.034866117872298 ], [ 353246.026940143667161, 1163659.562662382144481 ], [ 353443.454084222263191, 1163589.562662383308634 ] ] ] ] } },
{ "type": "Feature", "properties": { "id": null, "area": 8168 }, "geometry": { "type": "MultiPolygon", "coordinates": [ [ [ [ 353246.026940143667161, 1163659.562662382144481 ], [ 353265.827966623241082, 1163567.034866117872298 ], [ 353135.647370966733433, 1163619.562662383075804 ], [ 353175.622827375598717, 1163682.389963018707931 ], [ 353246.026940143667161, 1163659.562662382144481 ] ] ] ] } },
{ "type": "Feature", "properties": { "id": null, "area": 27122 }, "geometry": { "type": "MultiPolygon", "coordinates": [ [ [ [ 353138.393981919100042, 1163621.47551792813465 ], [ 353265.827966623241082, 1163567.034866117872298 ], [ 353319.394133399706334, 1163514.562662385636941 ], [ 353268.393981921486557, 1163366.010376637801528 ], [ 353218.393981919973157, 1163377.196507150772959 ], [ 353124.88523961417377, 1163389.562662390293553 ], [ 353133.393981918809004, 1163416.442329157842323 ], [ 353187.124148189555854, 1163424.562662388198078 ], [ 353233.651344036217779, 1163474.562662388430908 ], [ 353103.393981919565704, 1163579.264801142271608 ], [ 353138.393981919100042, 1163621.47551792813465 ] ] ] ] } },
{ "type": "Feature", "properties": { "id": null, "area": 13703 }, "geometry": { "type": "MultiPolygon", "coordinates": [ [ [ [ 353103.393981919565704, 1163579.264801142271608 ], [ 353233.651344036217779, 1163474.562662388430908 ], [ 353187.124148189555854, 1163424.562662388198078 ], [ 353133.393981918809004, 1163416.442329157376662 ], [ 353068.393981919740327, 1163534.579584160353988 ], [ 353103.393981919565704, 1163579.264801142271608 ] ] ] ] } },
{ "type": "Feature", "properties": { "id": null, "area": 10842 }, "geometry": { "type": "MultiPolygon", "coordinates": [ [ [ [ 353068.393981917935889, 1163534.524056863738224 ], [ 353133.393981918809004, 1163416.442329157376662 ], [ 353124.88523961417377, 1163389.562662390293553 ], [ 353065.940000131493434, 1163399.562662390293553 ], [ 353033.38638024602551, 1163409.5626623891294 ], [ 352988.393981921195518, 1163432.545724413590506 ], [ 353003.393981917819474, 1163450.738491743104532 ], [ 353038.393981918343343, 1163498.767041354905814 ], [ 353068.393981917935889, 1163534.524056863738224 ] ] ] ] } }
]
}
